STARLINK-37820          
1 69423U 26126D   26175.06531088  .00332941  00000+0  17307-2 0  9994
2 69423  97.2830  35.4599 0000910 285.7569  74.3598 15.80074081  3836
STARLINK-37822          
1 69424U 26126E   26175.25941171  .00405692  00000+0  25841-2 0  9990
2 69424  97.2834  35.6547 0000854  73.4986 286.6373 15.75273946  3865
STARLINK-37836          
1 69425U 26126F   26174.87494556  .00289300  00000+0  15142-2 0  9997
2 69425  97.2840  35.2601 0001751 111.0998 249.0457 15.80036073  3803
STARLINK-37850          
1 69426U 26126G   26175.25002315 -.00142807  00000+0 -78576-3 0  9992
2 69426  97.2837  35.6575 0001488  90.5874 242.4712 15.79998664  3919
STARLINK-37823          
1 69427U 26126H   26175.25002315 -.00272738  00000+0 -18802-2 0  9995
2 69427  97.2849  35.6304 0001532  99.8625 171.1652 15.75266990  3860
STARLINK-37834          
1 69428U 26126J   26175.14718181  .00129348  00000+0  85429-3 0  9995
2 69428  97.2844  35.5009 0001331 103.4646 256.6768 15.75209425  3844
STARLINK-37857          
1 69429U 26126K   26175.25002315 -.00244280  00000+0 -16762-2 0  9991
2 69429  97.2842  35.6380 0001530 100.8903 185.9946 15.75297279  3862
STARLINK-37866          
1 69430U 26126L   26174.93733042  .00622333  00000+0  29832-2 0  9994
2 69430  97.2830  35.3274 0021758 200.0438 159.9978 15.80840273  3860
STARLINK-37555          
1 69431U 26126M   26175.25387748  .00166831  00000+0  88634-3 0  9991
2 69431  97.2842  35.6636 0002913 145.9836 214.1619 15.80024442  3914
STARLINK-37870          
1 69432U 26126N   26175.12702519  .00225705  00000+0  11952-2 0  9999
2 69432  97.2846  35.5302 0001329 147.1998 212.9353 15.79944299  3843
STARLINK-37872          
1 69433U 26126P   26175.25002315 -.00136566  00000+0 -75104-3 0  9999
2 69433  97.2837  35.6610 0001409  94.2327 246.0047 15.79993464  3862
STARLINK-37815          
1 69434U 26126Q   26175.15494335  .00152117  00000+0  10017-2 0  9995
2 69434  97.2839  35.4902 0001035 107.1280 253.0098 15.75213496  3842
STARLINK-37801          
1 69435U 26126R   26175.25002315 -.00206754  00000+0 -14138-2 0  9997
2 69435  97.2848  35.6269 0001508  86.5803 172.3137 15.75275085  3914
STARLINK-37800          
1 69436U 26126S   26175.14294796  .00109592  00000+0  72524-3 0  9996
2 69436  97.2845  35.5063 0001115  95.5167 264.6226 15.75221720  3843
STARLINK-37792          
1 69437U 26126T   26174.61906496 -.00148539  00000+0 -81415-3 0  9990
2 69437  97.2840  34.9958 0000430 138.2233 221.9068 15.80101799  3819
STARLINK-37783          
1 69438U 26126U   26175.12575951  .00214845  00000+0  11390-2 0  9992
2 69438  97.2845  35.5309 0001741 182.8466 177.2793 15.79946995  3890
STARLINK-37771          
1 69439U 26126V   26175.15918215  .00172881  00000+0  11368-2 0  9998
2 69439  97.2848  35.4850 0001621  85.8603 274.2848 15.75185756  3846
STARLINK-37747          
1 69440U 26126W   26175.12742481  .07643341  00000+0  32526-1 0  9996
2 69440  97.2836  35.5288 0008463 284.3118  75.7210 15.80846306  3847
STARLINK-37629          
1 69443U 26127A   26175.25002315 -.00246112  00000+0 -16401-2 0  9994
2 69443  53.1595 227.3120 0001273  91.6380  68.4866 15.75354157  3771
STARLINK-37509          
1 69444U 26127B   26175.25002315 -.00094867  00000+0 -62047-3 0  9991
2 69444  53.1601 227.2629 0001176  91.5882  92.4380 15.75281772  3771
STARLINK-37641          
1 69445U 26127C   26175.07680830 -.00528229  00000+0 -34860-2 0  9991
2 69445  53.1589 227.9616 0006013 348.1418  11.9460 15.76303756  2492
STARLINK-37522          
1 69446U 26127D   26175.25002315 -.00230958  00000+0 -15368-2 0  9999
2 69446  53.1602 227.2588 0001297  92.3633  93.5184 15.75344002  3775
STARLINK-37640          
1 69447U 26127E   26175.26192846  .00163294  00000+0  81295-3 0  9999
2 69447  53.1585 226.9810 0001786  47.9162 312.2013 15.80935547  2526
STARLINK-37572          
1 69448U 26127F   26175.25002315 -.00125031  00000+0 -82227-3 0  9995
2 69448  53.1603 227.1561 0001378  97.6886 137.8657 15.75273490  3775
STARLINK-37643          
1 69449U 26127G   26175.25002315 -.00189915  00000+0 -12582-2 0  9993
2 69449  53.1605 227.2090 0001266  98.7963 110.9784 15.75320525  3775
STARLINK-37601          
1 69450U 26127H   26175.27618610  .00137551  00000+0  88577-3 0  9993
2 69450  53.1603 227.0751 0001158  92.5049 267.6104 15.75269762  2527
STARLINK-37578          
1 69451U 26127J   26175.25002315 -.00060358  00000+0 -39198-3 0  9998
2 69451  53.1594 227.0471 0000859  80.4734 208.4353 15.75262763  3771
STARLINK-37577          
1 69452U 26127K   26175.25409667  .00190874  00000+0  94662-3 0  9992
2 69452  53.1579 226.9275 0001516  68.4125 291.7059 15.80936017  2522
STARLINK-37500          
1 69453U 26127L   26175.25836152  .00139610  00000+0  89836-3 0  9994
2 69453  53.1589 226.9571 0001356  69.0716 291.0449 15.75279548  2527
STARLINK-37575          
1 69454U 26127M   26175.25102672  .00267618  00000+0  13106-2 0  9994
2 69454  53.1581 226.9066 0001100 123.6118 236.5010 15.80992708  2523
