OBJECT_NAME,OBJECT_ID,EPOCH,MEAN_MOTION,ECCENTRICITY,INCLINATION,RA_OF_ASC_NODE,ARG_OF_PERICENTER,MEAN_ANOMALY,EPHEMERIS_TYPE,CLASSIFICATION_TYPE,NORAD_CAT_ID,ELEMENT_SET_NO,REV_AT_EPOCH,BSTAR,MEAN_MOTION_DOT,MEAN_MOTION_DDOT
STARLINK-37820,2026-126D,2026-06-24T01:34:02.860032,15.80074081,.00009108,97.2830,35.4599,285.7569,74.3598,0,U,69423,999,383,.17306584E-2,.332941E-2,0
STARLINK-37822,2026-126E,2026-06-24T06:13:33.171744,15.75273946,.00008549,97.2834,35.6547,73.4986,286.6373,0,U,69424,999,386,.25841382E-2,.405692E-2,0
STARLINK-37836,2026-126F,2026-06-23T20:59:55.296384,15.80036073,.00017517,97.2840,35.2601,111.0998,249.0457,0,U,69425,999,380,.15141882E-2,.2893E-2,0
STARLINK-37850,2026-126G,2026-06-24T06:00:02.000160,15.79998664,.0001488,97.2837,35.6575,90.5874,242.4712,0,U,69426,999,391,-.78576462E-3,-.142807E-2,0
STARLINK-37823,2026-126H,2026-06-24T06:00:02.000160,15.75266990,.00015326,97.2849,35.6304,99.8625,171.1652,0,U,69427,999,386,-.18801978E-2,-.272738E-2,0
STARLINK-37834,2026-126J,2026-06-24T03:31:56.508384,15.75209425,.00013318,97.2844,35.5009,103.4646,256.6768,0,U,69428,999,384,.85428677E-3,.129348E-2,0
STARLINK-37857,2026-126K,2026-06-24T06:00:02.000160,15.75297279,.00015301,97.2842,35.6380,100.8903,185.9946,0,U,69429,999,386,-.1676186E-2,-.24428E-2,0
STARLINK-37866,2026-126L,2026-06-23T22:29:45.348288,15.80840273,.00217581,97.2830,35.3274,200.0438,159.9978,0,U,69430,999,386,.29831675E-2,.622333E-2,0
STARLINK-37555,2026-126M,2026-06-24T06:05:35.014272,15.80024442,.00029137,97.2842,35.6636,145.9836,214.1619,0,U,69431,999,391,.88634203E-3,.166831E-2,0
STARLINK-37870,2026-126N,2026-06-24T03:02:54.976416,15.79944299,.00013292,97.2846,35.5302,147.1998,212.9353,0,U,69432,999,384,.11952059E-2,.225705E-2,0
STARLINK-37872,2026-126P,2026-06-24T06:00:02.000160,15.79993464,.00014093,97.2837,35.6610,94.2327,246.0047,0,U,69433,999,386,-.75104282E-3,-.136566E-2,0
STARLINK-37815,2026-126Q,2026-06-24T03:43:07.105440,15.75213496,.00010354,97.2839,35.4902,107.1280,253.0098,0,U,69434,999,384,.10016535E-2,.152117E-2,0
STARLINK-37801,2026-126R,2026-06-24T06:00:02.000160,15.75275085,.00015084,97.2848,35.6269,86.5803,172.3137,0,U,69435,999,391,-.14137731E-2,-.206754E-2,0
STARLINK-37800,2026-126S,2026-06-24T03:25:50.703744,15.75221720,.00011151,97.2845,35.5063,95.5167,264.6226,0,U,69436,999,384,.72523977E-3,.109592E-2,0
STARLINK-37792,2026-126T,2026-06-23T14:51:27.212544,15.80101799,.00004306,97.2840,34.9958,138.2233,221.9068,0,U,69437,999,381,-.81415154E-3,-.148539E-2,0
STARLINK-37783,2026-126U,2026-06-24T03:01:05.621664,15.79946995,.00017412,97.2845,35.5309,182.8466,177.2793,0,U,69438,999,389,.11390137E-2,.214845E-2,0
STARLINK-37771,2026-126V,2026-06-24T03:49:13.337760,15.75185756,.00016215,97.2848,35.4850,85.8603,274.2848,0,U,69439,999,384,.11368288E-2,.172881E-2,0
STARLINK-37747,2026-126W,2026-06-24T03:03:29.503584,15.80846306,.00084633,97.2836,35.5288,284.3118,75.7210,0,U,69440,999,384,.32525731E-1,.7643341E-1,0
STARLINK-37629,2026-127A,2026-06-24T06:00:02.000160,15.75354157,.00012735,53.1595,227.3120,91.6380,68.4866,0,U,69443,999,377,-.16400553E-2,-.246112E-2,0
STARLINK-37509,2026-127B,2026-06-24T06:00:02.000160,15.75281772,.00011769,53.1601,227.2629,91.5882,92.4380,0,U,69444,999,377,-.62046889E-3,-.94867E-3,0
STARLINK-37641,2026-127C,2026-06-24T01:50:36.237120,15.76303756,.00060134,53.1589,227.9616,348.1418,11.9460,0,U,69445,999,249,-.34860258E-2,-.528229E-2,0
STARLINK-37522,2026-127D,2026-06-24T06:00:02.000160,15.75344002,.00012978,53.1602,227.2588,92.3633,93.5184,0,U,69446,999,377,-.15367607E-2,-.230958E-2,0
STARLINK-37640,2026-127E,2026-06-24T06:17:10.618944,15.80935547,.00017865,53.1585,226.9810,47.9162,312.2013,0,U,69447,999,252,.81295238E-3,.163294E-2,0
STARLINK-37572,2026-127F,2026-06-24T06:00:02.000160,15.75273490,.00013783,53.1603,227.1561,97.6886,137.8657,0,U,69448,999,377,-.82227281E-3,-.125031E-2,0
STARLINK-37643,2026-127G,2026-06-24T06:00:02.000160,15.75320525,.00012662,53.1605,227.2090,98.7963,110.9784,0,U,69449,999,377,-.12581597E-2,-.189915E-2,0
STARLINK-37601,2026-127H,2026-06-24T06:37:42.479040,15.75269762,.00011582,53.1603,227.0751,92.5049,267.6104,0,U,69450,999,252,.88577296E-3,.137551E-2,0
STARLINK-37578,2026-127J,2026-06-24T06:00:02.000160,15.75262763,.00008595,53.1594,227.0471,80.4734,208.4353,0,U,69451,999,377,-.39197938E-3,-.60358E-3,0
STARLINK-37577,2026-127K,2026-06-24T06:05:53.952288,15.80936017,.00015168,53.1579,226.9275,68.4125,291.7059,0,U,69452,999,252,.94661866E-3,.190874E-2,0
STARLINK-37500,2026-127L,2026-06-24T06:12:02.435328,15.75279548,.00013563,53.1589,226.9571,69.0716,291.0449,0,U,69453,999,252,.8983606E-3,.13961E-2,0
STARLINK-37575,2026-127M,2026-06-24T06:01:28.708608,15.80992708,.00011005,53.1581,226.9066,123.6118,236.5010,0,U,69454,999,252,.13105838E-2,.267618E-2,0
